0 IRIDIUM 33 DEB
1 34511U 97051HC  13281.55446262  .00002999  00000-0  10589-2 0  7627
2 34511 086.3952 135.9675 0030758 319.5136 104.3199 14.34170565241455
0 IRIDIUM 33 DEB
1 34511U 97051HC  13283.79971762  .00003770  00000-0  13323-2 0  7631
2 34511 086.3954 135.0290 0030461 311.9564 176.9101 14.34190343241772
0 IRIDIUM 33 DEB
1 34511U 97051HC  13285.82292811  .00003436  00000-0  12135-2 0  7648
2 34511 086.3954 134.1832 0030322 305.2142 183.0954 14.34200556242064
0 IRIDIUM 33 DEB
1 34511U 97051HC  13287.98032110  .00005646  00000-0  19976-2 0  7657
2 34511 086.3943 133.2811 0029985 297.8319 162.3770 14.34217527242370
0 IRIDIUM 33 DEB
1 34511U 97051HC  13290.62508037  .00005081  00000-0  17964-2 0  7667
2 34511 086.3937 132.1753 0029848 288.8009 138.2614 14.34238921242752
0 IRIDIUM 33 DEB
1 34511U 97051HC  13292.85661060  .00004684  00000-0  16552-2 0  7671
2 34511 086.3936 131.2420 0029722 281.1003 140.7299 14.34255675243071
0 IRIDIUM 33 DEB
1 34511U 97051HC  13295.03111083  .00005183  00000-0  18316-2 0  7685
2 34511 086.3939 130.3326 0029609 273.5688 208.8817 14.34271993243384
